#dP2024  1 12 18  0  0.00000000      96 __u+U IGS20 EXT  IAC
## 2296 496800.00000000   900.00000000 60321 0.7500000000000
+  117   C06C07C08C09C10C11C12C13C14C19C20C21C22C23C24C25C26
+        C27C28C29C30C32C33C34C35C36C37C38C39C40C41C42C43C44
+        C45C46E02E03E04E05E07E08E09E10E11E12E13E14E15E18E19
+        E21E24E25E26E27E30E31E33E34E36G01G02G03G04G05G06G07
+        G08G09G10G11G12G13G14G15G16G17G18G19G20G21G22G23G25
+        G26G28G29G30G31G32J02J03J04R01R02R03R04R05R07R08R09
+        R11R12R13R14R15R16R17R18R19R20R21R22R24R25R26  0  0
++        10 10 10  9 10  9  9 10 16  7  8  8  7  6  7  9  9
++         7  7  9  9  7  9  7  8  8  9 10 10  9  9  8 10  9
++         9  8  8  7  7  7  8  8  7  7  8  7  7  6  7  8  7
++         7  8  8  7  7  8  8  6  7  8  8  6  6  7  7  6  7
++         7  7  8  7  7  7  7  7  6  7  7  7  7  6  7  8  7
++         7  8  8  7  7  7 10 10  8 11  6  9  8  8  8  8  9
++         8  8  8  7  8  8  8  7  9 10  8  7  7  9 10  0  0
%c M  cc GPS ccc cccc cccc cccc cccc ccccc ccccc ccccc ccccc
%c cc cc ccc ccc cccc cccc cccc cccc ccccc ccccc ccccc ccccc
%f  0.0000000  0.000000000  0.00000000000  0.000000000000000
%f  0.0000000  0.000000000  0.00000000000  0.000000000000000
%i    0    0    0    0      0      0      0      0         0
%i    0    0    0    0      0      0      0      0         0
/* IAC                                ULTRA-RAPID PREDICTION
/* S/V CLOCKS ARE ALIGNED TO GNSS TIME                      
/* G:C1WC2W R:C1PC2P E:C1XC5X C:C2IC6I J:C1CC2S             
/* PCV:IGS20_2290 OL/AL:FES2004  NONE     YN ORB:CoN CLK:CoN
*  2024 01 13  6 30  0.00000000
PC06 -19252.932890  32492.765828  18472.665310     44.875419
PC07  -3300.551279  38702.296172  16716.113116   -629.434777
PC08  -4422.035300  19983.717784 -36844.700200    116.045727
PC09  -9852.568892  30970.452256  26945.866398   -346.037115
PC10   1889.558744  40768.657631  11973.011825    127.974149
PC11 -20378.709763  13065.906251  13965.855030    355.558891
PC12 -14603.746420  -5848.602033  23094.049370    797.829938
PC13   3111.818094  23044.414917 -34967.777009    406.885405
PC14 -15521.183476   3783.222150 -22862.059003    -43.919045
PC19  10015.987248 -13477.850152  22309.766728   -938.603642
PC20  18166.472550   4878.279245  20633.567806    -60.686122
PC21 -15988.785796 -21988.990556  -6235.276748   -964.381395
PC22  -4356.900344 -25167.762862  11215.476015   -149.662871
PC23  -2913.486668  16182.471390  22541.102332   -790.952732
PC24 -27770.198668  -2472.144456  -1555.313307    784.815817
PC25 -20904.892914  10474.162475  15232.943476    300.656427
PC26 -18604.714868 -12493.397393 -16673.587456   -233.988320
PC27   9113.826351  14332.669858 -22155.480874    256.019639
PC28  -4958.039587  24164.406835 -13038.467348    194.199541
PC29  17517.239969 -20860.962716  -6073.222474    227.491649
PC30  18845.346709  -3746.292876 -20250.762030    -14.881053
PC32  16153.041566  21913.368919   6170.774668   -553.124147
PC33  -9991.869466  13482.209326 -22294.480129   -943.009060
PC34 -19237.882017   5279.825616  19495.584178    346.048282
PC35   4053.785742 -24388.760238  12971.592583    458.468167
PC36  21609.221500  -9640.827484 -14771.446480    -54.702557
PC37  17783.990783  13126.053795  17018.694622   -931.791199
PC38 -13793.514262  19112.954307 -34914.751829    130.149550
PC39 -23849.312062  32823.419474  11063.097888     -6.613246
PC40  -8061.460036  35977.416177  20687.251787    -51.864488
PC41   3886.381109  24954.545451 -11824.150820   -879.344687
PC42 -18498.361387  -6494.975759 -19806.845454   -466.502800
PC43 -17902.835124  20246.527560   6894.982579     56.202321
PC44  -9601.732052 -14245.141357  21986.914592    352.250426
PC45   2477.910556 -16103.916412 -22665.479909    -62.677131
PC46  27817.168123   1827.157979    537.864497   -115.226651
PE02 -23626.347149  -2281.436828  17689.513989     94.626817
PE03 -17006.705667   7277.311203 -23114.738028    -86.662527
PE04  10393.995493 -25442.846706  11001.268574   -302.446863
PE05 -13642.625170 -14908.967795 -21628.746136   4709.835130
PE07   1998.844289  28666.819563   7110.510851    -98.127058
PE08 -10656.555231  25063.170613 -11604.172442   -207.202398
PE09  -1890.121376 -28689.951546  -7018.708882   -297.686539
PE10  10632.532191 -18927.441109  20121.113581   -593.750150
PE11   -922.893139 -16815.794685  24341.539817   3280.352004
PE12  19364.994509 -18015.800425  13313.335782   -860.518136
PE13    143.709482  16979.077856 -24233.764077    -19.888370
PE14   2106.476066 -23710.825760   1791.091490      9.081856
PE15 -19779.307795  17859.846321 -12861.724572    -79.902952
PE18   3482.708093  30554.183260 -10131.174682    205.065016
PE19  17025.035646  -4559.842934  23786.879362   -823.002192
PE21  24411.747541  16671.100679  -1430.972059   -573.631554
PE24 -10483.946491 -22113.487430 -16691.964718   -539.248761
PE25 -24280.967369 -16909.131911   1040.555762     -0.588914
PE26  20214.551700   5852.512436 -20804.840527    337.813035
PE27  10968.007814  22059.366401  16391.993918   -248.092626
PE30  -9119.921961  14198.970298  24301.513524   -820.362512
PE31   8762.188818 -14391.771156 -24336.906339    -13.661801
PE33  27800.098878  -7885.802247  -6399.674032      5.865676
PE34 -27799.932684   8317.654911   5863.493322    -88.704912
PE36 -19639.074870  -6205.592819  21264.906641   -171.117025
PG01  -1260.643753  15906.974746 -21519.258235    165.970443
PG02  -8601.984407  18094.394643 -16817.131557   -501.628846
PG03   4732.736916  18620.731447 -18532.959286    122.644674
PG04  -1087.585653  26246.727537   3398.646644    264.765114
PG05   7109.784927 -13181.240960  21758.111158   -157.773157
PG06  24861.202820  -5390.151292  -7744.675777    446.443938
PG07  13931.161148  10053.967272  20848.900059    -36.058146
PG08  -5517.566960  25141.137793   5476.579008   -161.844101
PG09   8301.736306  20940.781466  13941.876988     57.226512
PG10 -23339.936649  -9777.648447  -8399.098035    -69.130119
PG11  23453.023418 -11920.649925   3475.446547   -537.974292
PG12  -3152.076548 -19188.713957 -18408.980471   -467.362414
PG13  13262.079203 -19198.376363  12277.514400    615.346244
PG14  22894.512342  12621.263547  -5192.526914    297.293135
PG15   2456.049487 -25729.928528   5115.629781    116.717163
PG16 -14218.099525   7090.249480  21026.773090   -385.168540
PG17  13175.371214   8486.050851 -20991.444016    719.991550
PG18 -14740.153272  -8692.842554  20376.679849   -530.834401
PG19  15440.107387  -1274.224390 -21721.045135    425.845432
PG20  18881.348752  -5128.991146  17942.058383    391.787805
PG21 -12382.726737  18088.927211 -13778.884469    138.563735
PG22  21948.494641   7840.324022 -12029.008440     49.131325
PG23 -20504.384031 -16673.893361   3555.795622    134.378467
PG25 -14600.405815 -19632.163712 -11003.775449    485.075523
PG26 -21410.955407    736.721069  15780.751330    200.790235
PG28 -24116.476008   3801.566534 -10474.038442    -97.256200
PG29  -5377.857459 -22215.451474  13395.520451   -608.753348
PG30  22044.489294   2181.889241  14968.994132   -446.057779
PG31 -25059.126260   9310.682573  -1860.116235   -227.266048
PG32 -14700.960585  -4303.421349 -21519.720954   -604.666607
PJ02 -27198.349907  21019.840258  29529.888844     -1.138394
PJ03 -34391.898962  24069.438060    -36.892812     -0.155555
PJ04 -18290.038358  27902.193451 -20727.498521     76.727930
PR01 -12542.225231  -5204.290672 -21590.153502     74.459317
PR02  -6416.940066  12932.193254 -20965.065665    -22.388663
PR03   3200.197168  23903.719104  -8163.465453     92.625875
PR04  10512.623487  21519.485048   8781.869316    219.136598
PR05  12311.127253   7568.217039  21023.719682    125.273240
PR07  -3601.395608 -24171.966140   7448.966047     73.471180
PR08 -10735.302831 -21388.498660  -8825.452798    -73.993855
PR09  17014.275594  -5743.688543 -18138.850200    164.093664
PR11 -16811.898109 -11261.848599 -15516.337366   -226.361818
PR12 -24992.241641  -4278.998465   2886.268227     35.554586
PR13 -18786.417803   4173.676386  16724.501884    -43.241233
PR14    569.523555  11471.841636  22780.328892     25.936814
PR15  17867.922003  11196.126495  14366.984651     83.143822
PR16  25025.746493   4318.467252  -2560.707397     22.422877
PR17  -8983.942123  19020.325588 -14440.675663     51.916095
PR18   4495.775899  10201.562995 -22916.146182    121.862391
PR19  15059.980600  -1880.340798 -20495.565524   -261.861349
PR20  19208.864330 -16481.180285  -3341.355708   -106.684596
PR21   8802.501890 -18778.080987  14841.609044    -68.527259
PR22  -5325.351848  -9917.766368  22921.512144    102.918067
PR24 -18444.861976  17410.302766   2790.127113    -39.684917
PR25   9519.994066 -18725.350900  14467.597839     33.643554
PR26 -10636.273720 -21700.961880  -8112.732455   -203.762507
EOF
